NORAD_CAT_ID,OBJECT_NAME,OBJECT_TYPE,EPOCH,MEAN_MOTION,ECCENTRICITY,INCLINATION,RA_OF_ASC_NODE,ARG_OF_PERICENTER,MEAN_ANOMALY,BSTAR,MEAN_MOTION_DOT,MEAN_MOTION_DDOT,TLE_LINE0,TLE_LINE1,TLE_LINE2,SEMIMAJOR_AXIS,PERIOD,APOGEE,PERIGEE,DECAYED
54771.0,STARLINK-5451,PAYLOAD,2023-04-09 10:15:02,15.08842014,0.0001307,53.2175,141.0656,99.1351,260.9789,5.9332e-05,6.57e-06,0.0,0 STARLINK-5451,1 54771U 22175P   23099.42710960  .00000657  00000-0  59332-4 0  9997,2 54771  53.2175 141.0656 0001307  99.1351 260.9789 15.08842014 17014,6917.874,95.437,540.643,538.835,0.0
54771.0,STARLINK-5451,PAYLOAD,2023-04-09 15:01:11,15.08846125,0.0001283,53.2173,140.1729,96.412,263.7019,0.00012059,1.632e-05,0.0,0 STARLINK-5451,1 54771U 22175P   23099.62582739  .00001632  00000-0  12059-3 0  9998,2 54771  53.2173 140.1729 0001283  96.4120 263.7019 15.08846125 19207,6917.862,95.437,540.614,538.839,0.0
54771.0,STARLINK-5451,PAYLOAD,2023-04-10 06:55:03,15.08839225,0.0001242,53.2173,137.1989,89.5559,270.5575,0.00010907,1.448e-05,0.0,0 STARLINK-5451,1 54771U 22175P   23100.28823229  .00001448  00000-0  10907-3 0  9990,2 54771  53.2173 137.1989 0001242  89.5559 270.5575 15.08839225 19302,6917.883,95.438,540.607,538.889,0.0
54771.0,STARLINK-5451,PAYLOAD,2023-04-10 19:38:08,15.0884175,0.0001669,53.2164,134.8185,87.8926,272.2257,5.917e-05,6.54e-06,0.0,0 STARLINK-5451,1 54771U 22175P   23100.81815250  .00000654  00000-0  59170-4 0  9998,2 54771  53.2164 134.8185 0001669  87.8926 272.2257 15.08841750 19386,6917.875,95.437,540.895,538.585,0.0
54771.0,STARLINK-5451,PAYLOAD,2023-04-11 08:21:12,15.08847241,0.0001247,53.2165,132.4393,97.4105,262.7029,0.00012959,1.776e-05,0.0,0 STARLINK-5451,1 54771U 22175P   23101.34806696  .00001776  00000-0  12959-3 0  9990,2 54771  53.2165 132.4393 0001247  97.4105 262.7029 15.08847241 19461,6917.858,95.437,540.586,538.861,0.0
54771.0,STARLINK-5451,PAYLOAD,2023-04-12 12:58:09,15.08842597,0.0001261,53.2178,127.0892,84.9685,275.1451,4.2001e-05,3.81e-06,0.0,0 STARLINK-5451,1 54771U 22175P   23102.54038992  .00000381  00000-0  42001-4 0  9992,2 54771  53.2178 127.0892 0001261  84.9685 275.1451 15.08842597 19645,6917.872,95.437,540.61,538.865,0.0
54771.0,STARLINK-5451,PAYLOAD,2023-04-13 08:02:47,15.08835782,0.0001435,53.2178,123.52,105.5984,254.5167,3.4054e-06,-2.34e-06,0.0,0 STARLINK-5451,1 54771U 22175P   23103.33527546 -.00000234  00000-0  34054-5 0  9996,2 54771  53.2178 123.5200 0001435 105.5984 254.5167 15.08835782 19760,6917.893,95.438,540.751,538.766,0.0
54771.0,STARLINK-5451,PAYLOAD,2023-04-14 07:53:34,15.08841699,0.0001408,53.2179,119.0586,107.5762,252.5384,9.9844e-05,1.302e-05,0.0,0 STARLINK-5451,1 54771U 22175P   23104.32887065  .00001302  00000-0  99844-4 0  9994,2 54771  53.2179 119.0586 0001408 107.5762 252.5384 15.08841699 19914,6917.875,95.437,540.714,538.766,0.0
54771.0,STARLINK-5451,PAYLOAD,2023-04-14 17:25:53,15.08839334,0.0001383,53.2178,117.275,104.0253,256.0893,6.9994e-05,8.26e-06,0.0,0 STARLINK-5451,1 54771U 22175P   23104.72631370  .00000826  00000-0  69994-4 0  9997,2 54771  53.2178 117.2750 0001383 104.0253 256.0893 15.08839334 17819,6917.882,95.438,540.704,538.791,0.0
54771.0,STARLINK-5451,PAYLOAD,2023-04-15 07:44:21,15.08839726,0.0001388,53.2184,114.5993,106.0917,254.0228,9.1898e-05,1.175e-05,0.0,0 STARLINK-5451,1 54771U 22175P   23105.32247477  .00001175  00000-0  91898-4 0  9991,2 54771  53.2184 114.5993 0001388 106.0917 254.0228 15.08839726 20065,6917.881,95.438,540.706,538.786,0.0
54771.0,STARLINK-5451,PAYLOAD,2023-04-15 17:16:40,15.08837471,0.000137,53.2181,112.8152,105.0883,255.0261,4.3328e-05,4.02e-06,0.0,0 STARLINK-5451,1 54771U 22175P   23105.71991805  .00000402  00000-0  43328-4 0  9992,2 54771  53.2181 112.8152 0001370 105.0883 255.0261 15.08837471 20122,6917.888,95.438,540.701,538.805,0.0
54771.0,STARLINK-5451,PAYLOAD,2023-04-16 04:24:23,15.08836949,0.0001435,53.2187,110.7337,108.0193,252.0956,1.4585e-05,-5.6e-07,0.0,0 STARLINK-5451,1 54771U 22175P   23106.18360009 -.00000056  00000-0  14585-4 0  9999,2 54771  53.2187 110.7337 0001435 108.0193 252.0956 15.08836949 18033,6917.89,95.438,540.747,538.762,0.0
54771.0,STARLINK-5451,PAYLOAD,2023-04-16 07:35:09,15.08838103,0.0001431,53.2187,110.1391,107.5729,252.542,2.1834e-05,6e-07,0.0,0 STARLINK-5451,1 54771U 22175P   23106.31607919  .00000060  00000-0  21834-4 0  9997,2 54771  53.2187 110.1391 0001431 107.5729 252.5420 15.08838103 20210,6917.886,95.438,540.741,538.761,0.0
54771.0,STARLINK-5451,PAYLOAD,2023-04-16 17:07:27,15.08841297,0.000136,53.2187,108.3563,105.5497,254.5646,1.9665e-05,2.5e-07,0.0,0 STARLINK-5451,1 54771U 22175P   23106.71351765  .00000025  00000-0  19665-4 0  9996,2 54771  53.2187 108.3563 0001360 105.5497 254.5646 15.08841297 20277,6917.876,95.437,540.682,538.801,0.0
54771.0,STARLINK-5451,PAYLOAD,2023-04-17 04:15:11,15.0882309,0.0001377,53.2191,106.2747,108.7355,251.3787,-8.4534e-05,-1.632e-05,0.0,0 STARLINK-5451,1 54771U 22175P   23107.17721581 -.00001632  00000-0 -84534-4 0  9998,2 54771  53.2191 106.2747 0001377 108.7355 251.3787 15.08823090 18188,6917.932,95.439,540.75,538.844,0.0
54771.0,STARLINK-5451,PAYLOAD,2023-04-17 07:25:57,15.08822665,0.0001361,53.219,105.6799,108.7329,251.3811,-6.9854e-05,-1.399e-05,0.0,0 STARLINK-5451,1 54771U 22175P   23107.30969686 -.00001399  00000-0 -69854-4 0  9991,2 54771  53.2190 105.6799 0001361 108.7329 251.3811 15.08822665 20369,6917.933,95.439,540.74,538.857,0.0
54771.0,STARLINK-5451,PAYLOAD,2023-04-17 16:58:16,15.0882786,0.0001336,53.2192,103.8945,104.3584,255.7557,3.3986e-06,-2.34e-06,0.0,0 STARLINK-5451,1 54771U 22175P   23107.70713511 -.00000234  00000-0  33986-5 0  9993,2 54771  53.2192 103.8945 0001336 104.3584 255.7557 15.08827860 18264,6917.917,95.438,540.707,538.858,0.0
54771.0,STARLINK-5451,PAYLOAD,2023-04-18 07:16:43,15.08841662,0.0001114,53.2182,101.2178,103.2544,256.8573,0.00011815,1.593e-05,0.0,0 STARLINK-5451,1 54771U 22175P   23108.30328676  .00001593  00000-0  11815-3 0  9997,2 54771  53.2182 101.2178 0001114 103.2544 256.8573 15.08841662 20518,6917.875,95.437,540.511,538.97,0.0
54771.0,STARLINK-5451,PAYLOAD,2023-04-18 16:49:02,15.08843989,0.0001174,53.2182,99.4336,126.8913,233.2187,0.00010107,1.321e-05,0.0,0 STARLINK-5451,1 54771U 22175P   23108.70072549  .00001321  00000-0  10107-3 0  9998,2 54771  53.2182  99.4336 0001174 126.8913 233.2187 15.08843989 20579,6917.868,95.437,540.545,538.921,0.0
54771.0,STARLINK-5451,PAYLOAD,2023-04-19 08:42:54,15.08836721,8.39e-05,53.2172,96.4637,56.3067,303.8006,0.0001827,2.621e-05,0.0,0 STARLINK-5451,1 54771U 22175P   23109.36313282  .00002621  00000-0  18270-3 0  9996,2 54771  53.2172  96.4637 0000839  56.3067 303.8006 15.08836721 18514,6917.89,95.438,540.336,539.175,0.0
54771.0,STARLINK-5451,PAYLOAD,2023-04-19 16:39:49,15.08849976,1.64e-05,53.2174,94.9762,352.6199,7.4791,0.00025998,3.854e-05,0.0,0 STARLINK-5451,1 54771U 22175P   23109.69432198  .00003854  00000-0  25998-3 0  9994,2 54771  53.2174  94.9762 0000164 352.6199   7.4791 15.08849976 20727,6917.85,95.437,539.828,539.601,0.0
54771.0,STARLINK-5451,PAYLOAD,2023-04-20 08:33:40,15.08854532,0.0001237,53.2166,92.0001,91.7202,268.3932,0.00017133,2.441e-05,0.0,0 STARLINK-5451,1 54771U 22175P   23110.35672051  .00002441  00000-0  17133-3 0  9996,2 54771  53.2166  92.0001 0001237  91.7202 268.3932 15.08854532 20821,6917.836,95.437,540.557,538.845,0.0
54771.0,STARLINK-5451,PAYLOAD,2023-04-21 05:13:42,15.08838883,0.0001432,53.2167,88.1349,85.2368,274.8788,-5.4539e-05,-1.156e-05,0.0,0 STARLINK-5451,1 54771U 22175P   23111.21784809 -.00001156  00000-0 -54539-4 0  9993,2 54771  53.2167  88.1349 0001432  85.2368 274.8788 15.08838883 18796,6917.884,95.438,540.739,538.758,0.0
54771.0,STARLINK-5451,PAYLOAD,2023-04-21 06:49:05,15.08838954,0.000107,53.2173,87.8377,77.4696,282.6416,-6.8705e-05,-1.381e-05,0.0,0 STARLINK-5451,1 54771U 22175P   23111.28408797 -.00001381  00000-0 -68705-4 0  9999,2 54771  53.2173  87.8377 0001070  77.4696 282.6416 15.08838954 20961,6917.884,95.438,540.489,539.008,0.0
54771.0,STARLINK-5451,PAYLOAD,2023-04-23 08:06:02,15.08843317,0.0001238,53.218,78.6188,84.1132,276.0001,7.448e-05,8.98e-06,0.0,0 STARLINK-5451,1 54771U 22175P   23113.33752402  .00000898  00000-0  74480-4 0  9999,2 54771  53.2180  78.6188 0001238  84.1132 276.0001 15.08843317 19114,6917.87,95.437,540.592,538.879,0.0
54771.0,STARLINK-5451,PAYLOAD,2023-04-24 06:21:25,15.08869651,0.0001194,53.2185,74.4568,93.1362,266.9767,0.00054454,8.396e-05,0.0,0 STARLINK-5451,1 54771U 22175P   23114.26487334  .00008396  00000-0  54454-3 0  9990,2 54771  53.2185  74.4568 0001194  93.1362 266.9767 15.08869651 19252,6917.79,95.436,540.481,538.829,0.0
54771.0,STARLINK-5451,PAYLOAD,2023-04-25 03:01:25,15.08848117,0.0001182,53.2186,70.5915,103.9035,256.2088,9.4523e-05,1.217e-05,0.0,0 STARLINK-5451,1 54771U 22175P   23115.12599509  .00001217  00000-0  94523-4 0  9991,2 54771  53.2186  70.5915 0001182 103.9035 256.2088 15.08848117 19386,6917.856,95.437,540.538,538.903,0.0
54771.0,STARLINK-5451,PAYLOAD,2023-04-25 07:47:35,15.0884819,0.0001151,53.2185,69.699,90.7768,269.3356,9.8732e-05,1.284e-05,0.0,0 STARLINK-5451,1 54771U 22175P   23115.32471468  .00001284  00000-0  98732-4 0  9996,2 54771  53.2185  69.6990 0001151  90.7768 269.3356 15.08848190 21577,6917.855,95.437,540.517,538.924,0.0
54771.0,STARLINK-5451,PAYLOAD,2023-04-26 06:03:01,15.08816388,0.0001526,53.22,65.5344,88.5109,271.6058,-0.00032564,-5.463e-05,0.0,0 STARLINK-5451,1 54771U 22175P   23116.25210359 -.00005463  00000-0 -32564-3 0  9994,2 54771  53.2200  65.5344 0001526  88.5109 271.6058 15.08816388 21718,6917.953,95.439,540.873,538.762,0.0
54771.0,STARLINK-5451,PAYLOAD,2023-04-27 05:53:47,15.08843207,0.0001329,53.2198,61.0762,71.2539,288.8597,0.00026748,3.972e-05,0.0,0 STARLINK-5451,1 54771U 22175P   23117.24569416  .00003972  00000-0  26748-3 0  9993,2 54771  53.2198  61.0762 0001329  71.2539 288.8597 15.08843207 21860,6917.871,95.437,540.655,538.816,0.0
